{
  "type": "FeatureCollection",
  "features": [
    {
      "type": "Feature",
      "properties": {
        "norad_id": 32376,
        "name": "COSMO-SKYMED 2",
        "group": "resource",
        "lat": -70.10616637193382,
        "lon": -162.5728789432133,
        "alt_km": 630.6754709361921,
        "timestamp": "2025-12-19T16:54:43.907592+00:00",
        "meta_object_name": "COSMO-SKYMED 2",
        "meta_object_id": "2007-059A",
        "meta_epoch": "2025-12-19T07:30:49.116672",
        "meta_mean_motion": 14.82150209,
        "meta_eccentricity": 0.00013489,
        "meta_inclination": 97.8803,
        "meta_ra_of_asc_node": 174.5379,
        "meta_arg_of_pericenter": 83.1823,
        "meta_mean_anomaly": 276.9544,
        "meta_ephemeris_type": 0,
        "meta_classification_type": "U",
        "meta_norad_cat_id": 32376,
        "meta_element_set_no": 999,
        "meta_rev_at_epoch": 97535,
        "meta_bstar": 5.477437e-05,
        "meta_mean_motion_dot": 3.84e-06,
        "meta_mean_motion_ddot": 0,
        "tle_line1": "1 32376U 07059A   25353.31306848  .00000384  00000+0  54774-4 0  9998",
        "tle_line2": "2 32376  97.8803 174.5379 0001348  83.1823 276.9544 14.82150209975353"
      },
      "geometry": {
        "type": "Point",
        "coordinates": [
          -162.5728789432133,
          -70.10616637193382
        ]
      }
    },
    {
      "type": "Feature",
      "properties": {
        "norad_id": 32382,
        "name": "RADARSAT-2",
        "group": "resource",
        "lat": 11.149040342681015,
        "lon": -3.5109586003572155,
        "alt_km": 792.9029597484787,
        "timestamp": "2025-12-19T16:54:43.907613+00:00",
        "meta_object_name": "RADARSAT-2",
        "meta_object_id": "2007-061A",
        "meta_epoch": "2025-12-19T06:47:01.760064",
        "meta_mean_motion": 14.2998404,
        "meta_eccentricity": 0.00011153,
        "meta_inclination": 98.5792,
        "meta_ra_of_asc_node": 357.7781,
        "meta_arg_of_pericenter": 84.3007,
        "meta_mean_anomaly": 275.8302,
        "meta_ephemeris_type": 0,
        "meta_classification_type": "U",
        "meta_norad_cat_id": 32382,
        "meta_element_set_no": 999,
        "meta_rev_at_epoch": 94024,
        "meta_bstar": 0.00010067672,
        "meta_mean_motion_dot": 2.16e-06,
        "meta_mean_motion_ddot": 0,
        "tle_line1": "1 32382U 07061A   25353.28265926  .00000216  00000+0  10068-3 0  9996",
        "tle_line2": "2 32382  98.5792 357.7781 0001115  84.3007 275.8302 14.29984040940245"
      },
      "geometry": {
        "type": "Point",
        "coordinates": [
          -3.5109586003572155,
          11.149040342681015
        ]
      }
    },
    {
      "type": "Feature",
      "properties": {
        "norad_id": 32783,
        "name": "CARTOSAT-2A",
        "group": "resource",
        "lat": -12.324427553123297,
        "lon": 45.0256057578248,
        "alt_km": 629.2076360673918,
        "timestamp": "2025-12-19T16:54:43.907632+00:00",
        "meta_object_name": "CARTOSAT-2A",
        "meta_object_id": "2008-021A",
        "meta_epoch": "2025-12-19T07:13:32.202624",
        "meta_mean_motion": 14.78948374,
        "meta_eccentricity": 0.00113446,
        "meta_inclination": 97.7926,
        "meta_ra_of_asc_node": 42.9201,
        "meta_arg_of_pericenter": 343.1432,
        "meta_mean_anomaly": 16.9401,
        "meta_ephemeris_type": 0,
        "meta_classification_type": "U",
        "meta_norad_cat_id": 32783,
        "meta_element_set_no": 999,
        "meta_rev_at_epoch": 95221,
        "meta_bstar": 0.00010457074,
        "meta_mean_motion_dot": 7.22e-06,
        "meta_mean_motion_ddot": 0,
        "tle_line1": "1 32783U 08021A   25353.30106716  .00000722  00000+0  10457-3 0  9996",
        "tle_line2": "2 32783  97.7926  42.9201 0011344 343.1432  16.9401 14.78948374952211"
      },
      "geometry": {
        "type": "Point",
        "coordinates": [
          45.0256057578248,
          -12.324427553123297
        ]
      }
    },
    {
      "type": "Feature",
      "properties": {
        "norad_id": 33320,
        "name": "HUANJING 1A (HJ-1A)",
        "group": "resource",
        "lat": -35.21305392493411,
        "lon": -12.84174380222161,
        "alt_km": 615.5709400355663,
        "timestamp": "2025-12-19T16:54:43.907644+00:00",
        "meta_object_name": "HUANJING 1A (HJ-1A)",
        "meta_object_id": "2008-041A",
        "meta_epoch": "2025-12-19T07:21:30.368736",
        "meta_mean_motion": 14.83413315,
        "meta_eccentricity": 0.00197251,
        "meta_inclination": 97.6534,
        "meta_ra_of_asc_node": 341.3311,
        "meta_arg_of_pericenter": 13.5553,
        "meta_mean_anomaly": 346.6187,
        "meta_ephemeris_type": 0,
        "meta_classification_type": "U",
        "meta_norad_cat_id": 33320,
        "meta_element_set_no": 999,
        "meta_rev_at_epoch": 93173,
        "meta_bstar": 0.00011708039,
        "meta_mean_motion_dot": 9.13e-06,
        "meta_mean_motion_ddot": 0,
        "tle_line1": "1 33320U 08041A   25353.30660149  .00000913  00000+0  11708-3 0  9993",
        "tle_line2": "2 33320  97.6534 341.3311 0019725  13.5553 346.6187 14.83413315931730"
      },
      "geometry": {
        "type": "Point",
        "coordinates": [
          -12.84174380222161,
          -35.21305392493411
        ]
      }
    },
    {
      "type": "Feature",
      "properties": {
        "norad_id": 33321,
        "name": "HUANJING 1B (HJ-1B)",
        "group": "resource",
        "lat": 8.040658718056008,
        "lon": 166.47774553365198,
        "alt_km": 634.7821456713255,
        "timestamp": "2025-12-19T16:54:43.907655+00:00",
        "meta_object_name": "HUANJING 1B (HJ-1B)",
        "meta_object_id": "2008-041B",
        "meta_epoch": "2025-12-19T06:25:34.560768",
        "meta_mean_motion": 14.82837298,
        "meta_eccentricity": 0.00380187,
        "meta_inclination": 97.6394,
        "meta_ra_of_asc_node": 344.9738,
        "meta_arg_of_pericenter": 55.0491,
        "meta_mean_anomaly": 305.4284,
        "meta_ephemeris_type": 0,
        "meta_classification_type": "U",
        "meta_norad_cat_id": 33321,
        "meta_element_set_no": 999,
        "meta_rev_at_epoch": 93174,
        "meta_bstar": 0.00012850277,
        "meta_mean_motion_dot": 1.001e-05,
        "meta_mean_motion_ddot": 0,
        "tle_line1": "1 33321U 08041B   25353.26776112  .00001001  00000+0  12850-3 0  9995",
        "tle_line2": "2 33321  97.6394 344.9738 0038018  55.0491 305.4284 14.82837298931746"
      },
      "geometry": {
        "type": "Point",
        "coordinates": [
          166.47774553365198,
          8.040658718056008
        ]
      }
    },
    {
      "type": "Feature",
      "properties": {
        "norad_id": 33331,
        "name": "GEOEYE 1",
        "group": "resource",
        "lat": 63.69934313255115,
        "lon": 48.09745517790038,
        "alt_km": 673.7330201424866,
        "timestamp": "2025-12-19T16:54:43.907666+00:00",
        "meta_object_name": "GEOEYE 1",
        "meta_object_id": "2008-042A",
        "meta_epoch": "2025-12-19T05:08:24.472896",
        "meta_mean_motion": 14.64708636,
        "meta_eccentricity": 0.00027954,
        "meta_inclination": 98.1246,
        "meta_ra_of_asc_node": 64.4134,
        "meta_arg_of_pericenter": 256.8072,
        "meta_mean_anomaly": 103.282,
        "meta_ephemeris_type": 0,
        "meta_classification_type": "U",
        "meta_norad_cat_id": 33331,
        "meta_element_set_no": 999,
        "meta_rev_at_epoch": 92380,
        "meta_bstar": 8.9041847e-05,
        "meta_mean_motion_dot": 4.26e-06,
        "meta_mean_motion_ddot": 0,
        "tle_line1": "1 33331U 08042A   25353.21417214  .00000426  00000+0  89042-4 0  9995",
        "tle_line2": "2 33331  98.1246  64.4134 0002795 256.8072 103.2820 14.64708636923803"
      },
      "geometry": {
        "type": "Point",
        "coordinates": [
          48.09745517790038,
          63.69934313255115
        ]
      }
    },
    {
      "type": "Feature",
      "properties": {
        "norad_id": 33396,
        "name": "THEOS",
        "group": "resource",
        "lat": -62.87384982220924,
        "lon": -145.56368956024636,
        "alt_km": 832.901793813141,
        "timestamp": "2025-12-19T16:54:43.907677+00:00",
        "meta_object_name": "THEOS",
        "meta_object_id": "2008-049A",
        "meta_epoch": "2025-12-19T07:18:40.609152",
        "meta_mean_motion": 14.20097154,
        "meta_eccentricity": 0.00011552,
        "meta_inclination": 98.5864,
        "meta_ra_of_asc_node": 51.201,
        "meta_arg_of_pericenter": 95.9625,
        "meta_mean_anomaly": 264.1683,
        "meta_ephemeris_type": 0,
        "meta_classification_type": "U",
        "meta_norad_cat_id": 33396,
        "meta_element_set_no": 999,
        "meta_rev_at_epoch": 89243,
        "meta_bstar": 6.91281e-06,
        "meta_mean_motion_dot": -2.8e-07,
        "meta_mean_motion_ddot": 0,
        "tle_line1": "1 33396U 08049A   25353.30463668 -.00000028  00000+0  69128-5 0  9990",
        "tle_line2": "2 33396  98.5864  51.2010 0001155  95.9625 264.1683 14.20097154892432"
      },
      "geometry": {
        "type": "Point",
        "coordinates": [
          -145.56368956024636,
          -62.87384982220924
        ]
      }
    }
  ]
}